{"type": "FeatureCollection", "features": [ {"type": "Feature", "properties": {"norad_id": 33870, "name": "IRIDIUM 33 DEB", "group": "iridium-33-debris", "lat": -11.654925821113457, "lon": -126.61537508806917, "alt_km": 734.226880170324, "timestamp": "2025-12-25T20:42:39.072899+00:00", "meta": {"OBJECT_NAME": "IRIDIUM 33 DEB", "OBJECT_ID": "1997-051AP", "EPOCH": "2025-12-25T05:11:01.966272", "MEAN_MOTION": 14.45911631, "ECCENTRICITY": 0.00226539, "INCLINATION": 86.3733, "RA_OF_ASC_NODE": 52.9124, "ARG_OF_PERICENTER": 138.5968, "MEAN_ANOMALY": 287.3012, "EPHEMERIS_TYPE": 0, "CLASSIFICATION_TYPE": "U", "NORAD_CAT_ID": 33870, "ELEMENT_SET_NO": 999, "REV_AT_EPOCH": 88317, "BSTAR": 0.00070586074, "MEAN_MOTION_DOT": 2.536e-05, "MEAN_MOTION_DDOT": 0}, "tle": {"line1": "1 33870U 97051AP  25359.21599498  .00002536  00000+0  70586-3 0  9998", "line2": "2 33870  86.3733  52.9124 0022653 138.5968 287.3012 14.45911631883179"}}, "geometry": {"type": "Point", "coordinates": [-126.61537508806917, -11.654925821113457]}}, {"type": "Feature", "properties": {"norad_id": 33881, "name": "IRIDIUM 33 DEB", "group": "iridium-33-debris", "lat": -30.045029246046738, "lon": -76.8665044678709, "alt_km": 700.2053033288958, "timestamp": "2025-12-25T20:42:39.072909+00:00", "meta": {"OBJECT_NAME": "IRIDIUM 33 DEB", "OBJECT_ID": "1997-051BA", "EPOCH": "2025-12-24T19:37:00.349824", "MEAN_MOTION": 14.5678795, "ECCENTRICITY": 0.00611156, "INCLINATION": 86.3859, "RA_OF_ASC_NODE": 101.4931, "ARG_OF_PERICENTER": 135.6602, "MEAN_ANOMALY": 353.6404, "EPHEMERIS_TYPE": 0, "CLASSIFICATION_TYPE": "U", "NORAD_CAT_ID": 33881, "ELEMENT_SET_NO": 999, "REV_AT_EPOCH": 87676, "BSTAR": 0.0022055938, "MEAN_MOTION_DOT": 0.0001015, "MEAN_MOTION_DDOT": 0}, "tle": {"line1": "1 33881U 97051BA  25358.81736516  .00010150  00000+0  22056-2 0  9998", "line2": "2 33881  86.3859 101.4931 0061115 135.6602 353.6404 14.56787950876761"}}, "geometry": {"type": "Point", "coordinates": [-76.8665044678709, -30.045029246046738]}}, {"type": "Feature", "properties": {"norad_id": 33884, "name": "IRIDIUM 33 DEB", "group": "iridium-33-debris", "lat": 60.09997465331138, "lon": 10.232261391151422, "alt_km": 636.1622911414152, "timestamp": "2025-12-25T20:42:39.072920+00:00", "meta": {"OBJECT_NAME": "IRIDIUM 33 DEB", "OBJECT_ID": "1997-051BD", "EPOCH": "2025-12-25T01:10:47.472384", "MEAN_MOTION": 14.77671167, "ECCENTRICITY": 0.00088209, "INCLINATION": 86.3695, "RA_OF_ASC_NODE": 4.2604, "ARG_OF_PERICENTER": 274.8294, "MEAN_ANOMALY": 139.2318, "EPHEMERIS_TYPE": 0, "CLASSIFICATION_TYPE": "U", "NORAD_CAT_ID": 33884, "ELEMENT_SET_NO": 999, "REV_AT_EPOCH": 89029, "BSTAR": 0.0016802429, "MEAN_MOTION_DOT": 0.00012067, "MEAN_MOTION_DDOT": 0}, "tle": {"line1": "1 33884U 97051BD  25359.04916056  .00012067  00000+0  16802-2 0  9997", "line2": "2 33884  86.3695   4.2604 0008820 274.8294 139.2318 14.77671167890297"}}, "geometry": {"type": "Point", "coordinates": [10.232261391151422, 60.09997465331138]}}, {"type": "Feature", "properties": {"norad_id": 33886, "name": "IRIDIUM 33 DEB", "group": "iridium-33-debris", "lat": -8.618785214672188, "lon": -117.74582273961275, "alt_km": 766.0516639813277, "timestamp": "2025-12-25T20:42:39.072930+00:00", "meta": {"OBJECT_NAME": "IRIDIUM 33 DEB", "OBJECT_ID": "1997-051BF", "EPOCH": "2025-12-25T03:12:23.130720", "MEAN_MOTION": 14.36065835, "ECCENTRICITY": 0.00134898, "INCLINATION": 86.3819, "RA_OF_ASC_NODE": 62.0117, "ARG_OF_PERICENTER": 197.7345, "MEAN_ANOMALY": 182.5588, "EPHEMERIS_TYPE": 0, "CLASSIFICATION_TYPE": "U", "NORAD_CAT_ID": 33886, "ELEMENT_SET_NO": 999, "REV_AT_EPOCH": 88230, "BSTAR": 0.00018625376, "MEAN_MOTION_DOT": 5.62e-06, "MEAN_MOTION_DDOT": 0}, "tle": {"line1": "1 33886U 97051BF  25359.13360105  .00000562  00000+0  18625-3 0  9990", "line2": "2 33886  86.3819  62.0117 0013489 197.7345 182.5588 14.36065835882302"}}, "geometry": {"type": "Point", "coordinates": [-117.74582273961275, -8.618785214672188]}}, {"type": "Feature", "properties": {"norad_id": 33887, "name": "IRIDIUM 33 DEB", "group": "iridium-33-debris", "lat": -0.011940204859052018, "lon": 177.73730734228332, "alt_km": 766.5835186907916, "timestamp": "2025-12-25T20:42:39.072941+00:00", "meta": {"OBJECT_NAME": "IRIDIUM 33 DEB", "OBJECT_ID": "1997-051BG", "EPOCH": "2025-12-25T01:50:13.201152", "MEAN_MOTION": 14.37231733, "ECCENTRICITY": 0.00057849, "INCLINATION": 86.3043, "RA_OF_ASC_NODE": 358.0753, "ARG_OF_PERICENTER": 179.6912, "MEAN_ANOMALY": 253.8578, "EPHEMERIS_TYPE": 0, "CLASSIFICATION_TYPE": "U", "NORAD_CAT_ID": 33887, "ELEMENT_SET_NO": 999, "REV_AT_EPOCH": 88342, "BSTAR": 0.00014791728, "MEAN_MOTION_DOT": 4.6e-06, "MEAN_MOTION_DDOT": 0}, "tle": {"line1": "1 33887U 97051BG  25359.07654168  .00000460  00000+0  14792-3 0  9997", "line2": "2 33887  86.3043 358.0753 0005784 179.6912 253.8578 14.37231733883422"}}, "geometry": {"type": "Point", "coordinates": [177.73730734228332, -0.011940204859052018]}}, {"type": "Feature", "properties": {"norad_id": 33953, "name": "IRIDIUM 33 DEB", "group": "iridium-33-debris", "lat": 7.724050373846371, "lon": -132.40904098266833, "alt_km": 714.1412284997796, "timestamp": "2025-12-25T20:42:39.072951+00:00", "meta": {"OBJECT_NAME": "IRIDIUM 33 DEB", "OBJECT_ID": "1997-051BN", "EPOCH": "2025-12-25T03:40:07.885920", "MEAN_MOTION": 14.55436981, "ECCENTRICITY": 0.0017572, "INCLINATION": 86.3831, "RA_OF_ASC_NODE": 48.3908, "ARG_OF_PERICENTER": 64.7421, "MEAN_ANOMALY": 349.0665, "EPHEMERIS_TYPE": 0, "CLASSIFICATION_TYPE": "U", "NORAD_CAT_ID": 33953, "ELEMENT_SET_NO": 999, "REV_AT_EPOCH": 88484, "BSTAR": 0.0011554078, "MEAN_MOTION_DOT": 5.052e-05, "MEAN_MOTION_DDOT": 0}, "tle": {"line1": "1 33953U 97051BN  25359.15286905  .00005052  00000+0  11554-2 0  9994", "line2": "2 33953  86.3831  48.3908 0017572  64.7421 349.0665 14.55436981884843"}}, "geometry": {"type": "Point", "coordinates": [-132.40904098266833, 7.724050373846371]}}, {"type": "Feature", "properties": {"norad_id": 33960, "name": "IRIDIUM 33 DEB", "group": "iridium-33-debris", "lat": -42.56449794853556, "lon": -80.12518047435921, "alt_km": 616.8517101940324, "timestamp": "2025-12-25T20:42:39.072962+00:00", "meta": {"OBJECT_NAME": "IRIDIUM 33 DEB", "OBJECT_ID": "1997-051BV", "EPOCH": "2025-12-25T05:26:42.763776", "MEAN_MOTION": 14.85811675, "ECCENTRICITY": 0.00071205, "INCLINATION": 86.2536, "RA_OF_ASC_NODE": 283.625, "ARG_OF_PERICENTER": 40.2762, "MEAN_ANOMALY": 117.1515, "EPHEMERIS_TYPE": 0, "CLASSIFICATION_TYPE": "U", "NORAD_CAT_ID": 33960, "ELEMENT_SET_NO": 999, "REV_AT_EPOCH": 89052, "BSTAR": 0.0033149809, "MEAN_MOTION_DOT": 0.00028953, "MEAN_MOTION_DDOT": 0}, "tle": {"line1": "1 33960U 97051BV  25359.22688384  .00028953  00000+0  33150-2 0  9998", "line2": "2 33960  86.2536 283.6250 0007120  40.2762 117.1515 14.85811675890521"}}, "geometry": {"type": "Point", "coordinates": [-80.12518047435921, -42.56449794853556]}}, {"type": "Feature", "properties": {"norad_id": 33966, "name": "IRIDIUM 33 DEB", "group": "iridium-33-debris", "lat": 25.752192242791864, "lon": 42.13924018796305, "alt_km": 729.3018949742072, "timestamp": "2025-12-25T20:42:39.072972+00:00", "meta": {"OBJECT_NAME": "IRIDIUM 33 DEB", "OBJECT_ID": "1997-051CB", "EPOCH": "2025-12-25T02:38:32.610624", "MEAN_MOTION": 14.49640372, "ECCENTRICITY": 0.00087528, "INCLINATION": 86.391, "RA_OF_ASC_NODE": 40.7177, "ARG_OF_PERICENTER": 149.9673, "MEAN_ANOMALY": 269.6279, "EPHEMERIS_TYPE": 0, "CLASSIFICATION_TYPE": "U", "NORAD_CAT_ID": 33966, "ELEMENT_SET_NO": 999, "REV_AT_EPOCH": 88621, "BSTAR": 0.00049068622, "MEAN_MOTION_DOT": 1.906e-05, "MEAN_MOTION_DDOT": 0}, "tle": {"line1": "1 33966U 97051CB  25359.11009966  .00001906  00000+0  49069-3 0  9991", "line2": "2 33966  86.3910  40.7177 0008752 149.9673 269.6279 14.49640372886219"}}, "geometry": {"type": "Point", "coordinates": [42.13924018796305, 25.752192242791864]}}, {"type": "Feature", "properties": {"norad_id": 34071, "name": "IRIDIUM 33 DEB", "group": "iridium-33-debris", "lat": 84.91349125066668, "lon": 58.023102825482454, "alt_km": 712.9700939174218, "timestamp": "2025-12-25T20:42:39.072982+00:00", "meta": {"OBJECT_NAME": "IRIDIUM 33 DEB", "OBJECT_ID": "1997-051CE", "EPOCH": "2025-12-25T00:25:57.741024", "MEAN_MOTION": 14.49517656, "ECCENTRICITY": 0.00098633, "INCLINATION": 86.345, "RA_OF_ASC_NODE": 12.4906, "ARG_OF_PERICENTER": 74.9125, "MEAN_ANOMALY": 285.317, "EPHEMERIS_TYPE": 0, "CLASSIFICATION_TYPE": "U", "NORAD_CAT_ID": 34071, "ELEMENT_SET_NO": 999, "REV_AT_EPOCH": 88512, "BSTAR": 0.00064465613, "MEAN_MOTION_DOT": 2.491e-05, "MEAN_MOTION_DDOT": 0}, "tle": {"line1": "1 34071U 97051CE  25359.01802941  .00002491  00000+0  64466-3 0  9990", "line2": "2 34071  86.3450  12.4906 0009863  74.9125 285.3170 14.49517656885127"}}, "geometry": {"type": "Point", "coordinates": [58.023102825482454, 84.91349125066668]}}, {"type": "Feature", "properties": {"norad_id": 34077, "name": "IRIDIUM 33 DEB", "group": "iridium-33-debris", "lat": -63.80402760537882, "lon": 38.34199280388433, "alt_km": 681.2903346392313, "timestamp": "2025-12-25T20:42:39.072992+00:00", "meta": {"OBJECT_NAME": "IRIDIUM 33 DEB", "OBJECT_ID": "1997-051CL", "EPOCH": "2025-12-25T03:14:00.034368", "MEAN_MOTION": 14.64988618, "ECCENTRICITY": 0.0008744, "INCLINATION": 86.3848, "RA_OF_ASC_NODE": 46.0463, "ARG_OF_PERICENTER": 358.5908, "MEAN_ANOMALY": 59.3441, "EPHEMERIS_TYPE": 0, "CLASSIFICATION_TYPE": "U", "NORAD_CAT_ID": 34077, "ELEMENT_SET_NO": 999, "REV_AT_EPOCH": 88514, "BSTAR": 0.0015691303, "MEAN_MOTION_DOT": 8.432e-05, "MEAN_MOTION_DDOT": 0}, "tle": {"line1": "1 34077U 97051CL  25359.13472262  .00008432  00000+0  15691-2 0  9994", "line2": "2 34077  86.3848  46.0463 0008744 358.5908  59.3441 14.64988618885141"}}, "geometry": {"type": "Point", "coordinates": [38.34199280388433, -63.80402760537882]}}]}